{"epoch":1784762836,"count":18316,"objects":[{"id":"41586","name":"BD-2-G7","type":"PAYLOAD","l1":"1 41586U 16037A   26203.63622421 -.00000351  00000-0  00000-0 0  9990","l2":"2 41586   1.8061  69.5594 0006156   1.8546 208.5568  1.00270266  7243"},{"id":"43001","name":"BEIDOU 3M1","type":"PAYLOAD","l1":"1 43001U 17069A   26201.96127414 -.00000079  00000-0  00000-0 0  9993","l2":"2 43001  56.7221  61.9715 0008832 327.7311  32.2769  1.86231306 59235"},{"id":"43002","name":"BEIDOU 3M2","type":"PAYLOAD","l1":"1 43002U 17069B   26201.90009830 -.00000079  00000-0  00000-0 0  9999","l2":"2 43002  56.7212  62.0097 0007807 355.9026   4.1531  1.86230310 59226"},{"id":"43107","name":"BEIDOU 3M3","type":"PAYLOAD","l1":"1 43107U 18003A   26202.17906478 -.00000101  00000-0  00000-0 0  9994","l2":"2 43107  54.2951 301.1285 0004255 100.7931 259.2886  1.86228037 57986"},{"id":"43108","name":"BEIDOU 3M4","type":"PAYLOAD","l1":"1 43108U 18003B   26202.66025765 -.00000101  00000-0  00000-0 0  9990","l2":"2 43108  54.2876 301.0931 0003132 256.3194 103.6796  1.86230921 58003"},{"id":"43207","name":"BEIDOU 3M5","type":"PAYLOAD","l1":"1 43207U 18018A   26202.02956916 -.00000080  00000-0  00000-0 0  9993","l2":"2 43207  56.6812  62.0321 0007145  31.4150 328.6897  1.86231251 57375"},{"id":"43208","name":"BEIDOU 3M6","type":"PAYLOAD","l1":"1 43208U 18018B   26202.63302743 -.00000079  00000-0  00000-0 0  9992","l2":"2 43208  56.6811  62.0163 0007201 348.0427  12.0023  1.86231119 57385"},{"id":"43245","name":"BEIDOU 3M7","type":"PAYLOAD","l1":"1 43245U 18029A   26201.77715794 -.00000098  00000-0  00000-0 0  9994","l2":"2 43245  54.1608 298.7724 0001216 191.8898 168.1446  1.86228484 56528"},{"id":"43246","name":"BEIDOU 3M8","type":"PAYLOAD","l1":"1 43246U 18029B   26202.78525843 -.00000097  00000-0  00000-0 0  9990","l2":"2 43246  54.1581 298.7638 0003156  36.7778 323.2807  1.86229141 56528"},{"id":"43539","name":"BEIDOU IGSO-7","type":"PAYLOAD","l1":"1 43539U 18057A   26197.82826650 -.00000084  00000-0  00000-0 0  9990","l2":"2 43539  55.1987 162.7987 0104915 237.9691 299.1450  1.00242392 29428"},{"id":"43581","name":"BEIDOU 3M9","type":"PAYLOAD","l1":"1 43581U 18062A   26202.47219311  .00000078  00000-0  00000-0 0  9993","l2":"2 43581  54.0866 181.1382 0005611 294.6649  65.2579  1.86228813 54270"},{"id":"43582","name":"BEIDOU 3M10","type":"PAYLOAD","l1":"1 43582U 18062B   26203.40973527  .00000076  00000-0  00000-0 0  9992","l2":"2 43582  54.0863 181.0957 0005389  11.3215 348.6730  1.86228094 54290"},{"id":"43602","name":"BEIDOU 3M11","type":"PAYLOAD","l1":"1 43602U 18067A   26203.34818810  .00000075  00000-0  00000-0 0  9995","l2":"2 43602  54.1814 179.8480 0008043  30.1591 329.8681  1.86227636 53771"}]}